CTC2_L_00610007-03
1 86793U 22669IH  26070.40851852  .00000000  00000+0  00000-0 0  9995
2 86793  50.0000 180.0000 0000000   0.0000 144.0000  5.31014043    10
CTC2_L_00610007-04
1 86794U 22859VX  26070.40851852  .00000000  00000+0  00000-0 0  9997
2 86794  50.0000 180.0000 0000000   0.0000 180.0000  5.31014043    11
CTC2_L_00610007-05
1 86795U 25287OB  26070.40851852  .00000000  00000+0  00000-0 0  9996
2 86795  50.0000 180.0000 0000000   0.0000 216.0000  5.31014043    12
CTC2_L_00610007-06
1 86796U 25138ZR  26070.40851852  .00000000  00000+0  00000-0 0  9992
2 86796  50.0000 180.0000 0000000   0.0000 252.0000  5.31014043    13
CTC2_L_00610007-07
1 86797U 24949PI  26070.40851852  .00000000  00000+0  00000-0 0  9992
2 86797  50.0000 180.0000 0000000   0.0000 288.0000  5.31014043    13
CTC2_L_00610007-08
1 86798U 24248UO  26070.40851852  .00000000  00000+0  00000-0 0  9995
2 86798  50.0000 180.0000 0000000   0.0000 324.0000  5.31014043    15
CTC2_L_00610007-09
1 86799U 22436WI  26070.40851852  .00000000  00000+0  00000-0 0  9993
2 86799  50.0000 180.0000 0000000   0.0000   0.0000  5.31014043    17
CTC2_L_00610007-10
1 86800U 22297AS  26070.40851852  .00000000  00000+0  00000-0 0  9991
2 86800  50.0000 180.0000 0000000   0.0000  36.0000  5.31014043    19
CTC2_L_00610008-01
1 86801U 26187AL  26070.40851852  .00000000  00000+0  00000-0 0  9994
2 86801  50.0000 210.0000 0000000   0.0000  84.0000  5.31014043    17
CTC2_L_00610008-02
1 86802U 26384FB  26070.40851852  .00000000  00000+0  00000-0 0  9994
2 86802  50.0000 210.0000 0000000   0.0000 120.0000  5.31014043    19
CTC2_L_00610008-03
1 86803U 22716LM  26070.40851852  .00000000  00000+0  00000-0 0  9990
2 86803  50.0000 210.0000 0000000   0.0000 156.0000  5.31014043    19
CTC2_L_00610008-04
1 86804U 26711YM  26070.40851852  .00000000  00000+0  00000-0 0  9990
2 86804  50.0000 210.0000 0000000   0.0000 192.0000  5.31014043    10
CTC2_L_00610008-05
1 86805U 26029DS  26070.40851852  .00000000  00000+0  00000-0 0  9993
2 86805  50.0000 210.0000 0000000   0.0000 228.0000  5.31014043    11
CTC2_L_00610008-06
1 86806U 22436EK  26070.40851852  .00000000  00000+0  00000-0 0  9992
2 86806  50.0000 210.0000 0000000   0.0000 264.0000  5.31014043    12
CTC2_L_00610008-07
1 86807U 24150TQ  26070.40851852  .00000000  00000+0  00000-0 0  9998
2 86807  50.0000 210.0000 0000000   0.0000 300.0000  5.31014043    14
CTC2_L_00610008-08
1 86808U 25008HQ  26070.40851852  .00000000  00000+0  00000-0 0  9992
2 86808  50.0000 210.0000 0000000   0.0000 336.0000  5.31014043    14
CTC2_L_00610008-09
1 86809U 23814TG  26070.40851852  .00000000  00000+0  00000-0 0  9996
2 86809  50.0000 210.0000 0000000   0.0000  12.0000  5.31014043    16
CTC2_L_00610008-10
1 86810U 25741MH  26070.40851852  .00000000  00000+0  00000-0 0  9999
2 86810  50.0000 210.0000 0000000   0.0000  48.0000  5.31014043    17
CTC2_L_00610009-01
1 86811U 23390YY  26070.40851852  .00000000  00000+0  00000-0 0  9998
2 86811  50.0000 240.0000 0000000   0.0000  96.0000  5.31014043    14
CTC2_L_00610009-02
1 86812U 25220XO  26070.40851852  .00000000  00000+0  00000-0 0  9993
2 86812  50.0000 240.0000 0000000   0.0000 132.0000  5.31014043    16
CTC2_L_00610009-03
1 86813U 24162RV  26070.40851852  .00000000  00000+0  00000-0 0  9998
2 86813  50.0000 240.0000 0000000   0.0000 168.0000  5.31014043    16
CTC2_L_00610009-04
1 86814U 25899HX  26070.40851852  .00000000  00000+0  00000-0 0  9997
2 86814  50.0000 240.0000 0000000   0.0000 204.0000  5.31014043    18
CTC2_L_00610009-05
1 86815U 25373CP  26070.40851852  .00000000  00000+0  00000-0 0  9995
2 86815  50.0000 240.0000 0000000   0.0000 240.0000  5.31014043    19
CTC2_L_00610009-06
1 86816U 22038GD  26070.40851852  .00000000  00000+0  00000-0 0  9991
2 86816  50.0000 240.0000 0000000   0.0000 276.0000  5.31014043    19
CTC2_L_00610009-07
1 86817U 25361PX  26070.40851852  .00000000  00000+0  00000-0 0  9994
2 86817  50.0000 240.0000 0000000   0.0000 312.0000  5.31014043    11
CTC2_L_00610009-08
1 86818U 25572NQ  26070.40851852  .00000000  00000+0  00000-0 0  9999
2 86818  50.0000 240.0000 0000000   0.0000 348.0000  5.31014043    11
CTC2_L_00610009-09
1 86819U 23166CT  26070.40851852  .00000000  00000+0  00000-0 0  9997
2 86819  50.0000 240.0000 0000000   0.0000  24.0000  5.31014043    13
CTC2_L_00610009-10
1 86820U 26891WY  26070.40851852  .00000000  00000+0  00000-0 0  9997
2 86820  50.0000 240.0000 0000000   0.0000  60.0000  5.31014043    15
CTC2_L_00610010-01
1 86821U 25823SC  26070.40851852  .00000000  00000+0  00000-0 0  9992
2 86821  50.0000 270.0000 0000000   0.0000 108.0000  5.31014043    12
CTC2_L_00610010-02
1 86822U 25846XC  26070.40851852  .00000000  00000+0  00000-0 0  9998
2 86822  50.0000 270.0000 0000000   0.0000 144.0000  5.31014043    13
CTC2_L_00610010-03
1 86823U 22388GR  26070.40851852  .00000000  00000+0  00000-0 0  9997
2 86823  50.0000 270.0000 0000000   0.0000 180.0000  5.31014043    14
CTC2_L_00610010-04
1 86824U 26194GY  26070.40851852  .00000000  00000+0  00000-0 0  9997
2 86824  50.0000 270.0000 0000000   0.0000 216.0000  5.31014043    15
CTC2_L_00610010-05
1 86825U 22379LO  26070.40851852  .00000000  00000+0  00000-0 0  9999
2 86825  50.0000 270.0000 0000000   0.0000 252.0000  5.31014043    16
CTC2_L_00610010-06
1 86826U 24617NP  26070.40851852  .00000000  00000+0  00000-0 0  9997
2 86826  50.0000 270.0000 0000000   0.0000 288.0000  5.31014043    16
CTC2_L_00610010-07
1 86827U 25147OV  26070.40851852  .00000000  00000+0  00000-0 0  9997
2 86827  50.0000 270.0000 0000000   0.0000 324.0000  5.31014043    18
CTC2_L_00610010-08
1 86828U 23397DA  26070.40851852  .00000000  00000+0  00000-0 0  9993
2 86828  50.0000 270.0000 0000000   0.0000   0.0000  5.31014043    10
CTC2_L_00610010-09
1 86829U 23278EE  26070.40851852  .00000000  00000+0  00000-0 0  9992
2 86829  50.0000 270.0000 0000000   0.0000  36.0000  5.31014043    10
CTC2_L_00610010-10
1 86830U 22407VR  26070.40851852  .00000000  00000+0  00000-0 0  9997
2 86830  50.0000 270.0000 0000000   0.0000  72.0000  5.31014043    12
CTC2_L_00610011-01
1 86831U 25761YA  26070.40851852  .00000000  00000+0  00000-0 0  9994
2 86831  50.0000 300.0000 0000000   0.0000 120.0000  5.31014043    11
CTC2_L_00610011-02
1 86832U 24590OI  26070.40851852  .00000000  00000+0  00000-0 0  9994
2 86832  50.0000 300.0000 0000000   0.0000 156.0000  5.31014043    11
CTC2_L_00610011-03
1 86833U 24708LA  26070.40851852  .00000000  00000+0  00000-0 0  9996
2 86833  50.0000 300.0000 0000000   0.0000 192.0000  5.31014043    12
CTC2_L_00610011-04
1 86834U 26701LN  26070.40851852  .00000000  00000+0  00000-0 0  9992
2 86834  50.0000 300.0000 0000000   0.0000 228.0000  5.31014043    13
CTC2_L_00610011-05
1 86835U 22356VD  26070.40851852  .00000000  00000+0  00000-0 0  9995
2 86835  50.0000 300.0000 0000000   0.0000 264.0000  5.31014043    14
CTC2_L_00610011-06
1 86836U 22808LL  26070.40851852  .00000000  00000+0  00000-0 0  9998
2 86836  50.0000 300.0000 0000000   0.0000 300.0000  5.31014043    16
CTC2_L_00610011-07
1 86837U 22550T   26070.40851852  .00000000  00000+0  00000-0 0  9993
2 86837  50.0000 300.0000 0000000   0.0000 336.0000  5.31014043    16
CTC2_L_00610011-08
1 86838U 26414XF  26070.40851852  .00000000  00000+0  00000-0 0  9997
2 86838  50.0000 300.0000 0000000   0.0000  12.0000  5.31014043    18
CTC2_L_00610011-09
1 86839U 22163YZ  26070.40851852  .00000000  00000+0  00000-0 0  9995
2 86839  50.0000 300.0000 0000000   0.0000  48.0000  5.31014043    18
CTC2_L_00610011-10
1 86840U 26435SF  26070.40851852  .00000000  00000+0  00000-0 0  9993
2 86840  50.0000 300.0000 0000000   0.0000  84.0000  5.31014043    10
CTC2_L_00610012-01
1 86841U 26890DC  26070.40851852  .00000000  00000+0  00000-0 0  9999
2 86841  50.0000 330.0000 0000000   0.0000 132.0000  5.31014043    18
CTC2_L_00610012-02
1 86842U 24066LQ  26070.40851852  .00000000  00000+0  00000-0 0  9993
2 86842  50.0000 330.0000 0000000   0.0000 168.0000  5.31014043    18
CTC2_L_00610012-03
1 86843U 26520WG  26070.40851852  .00000000  00000+0  00000-0 0  9991
2 86843  50.0000 330.0000 0000000   0.0000 204.0000  5.31014043    10
CTC2_L_00610012-04
1 86844U 25998AS  26070.40851852  .00000000  00000+0  00000-0 0  9990
2 86844  50.0000 330.0000 0000000   0.0000 240.0000  5.31014043    11
CTC2_L_00610012-05
1 86845U 22947RI  26070.40851852  .00000000  00000+0  00000-0 0  9992
2 86845  50.0000 330.0000 0000000   0.0000 276.0000  5.31014043    11
CTC2_L_00610012-06
1 86846U 22852YL  26070.40851852  .00000000  00000+0  00000-0 0  9998
2 86846  50.0000 330.0000 0000000   0.0000 312.0000  5.31014043    13
CTC2_L_00610012-07
1 86847U 25418EZ  26070.40851852  .00000000  00000+0  00000-0 0  9990
2 86847  50.0000 330.0000 0000000   0.0000 348.0000  5.31014043    13
CTC2_L_00610012-08
1 86848U 26619XL  26070.40851852  .00000000  00000+0  00000-0 0  9995
2 86848  50.0000 330.0000 0000000   0.0000  24.0000  5.31014043    15
CTC2_L_00610012-09
1 86849U 22648FE  26070.40851852  .00000000  00000+0  00000-0 0  9994
2 86849  50.0000 330.0000 0000000   0.0000  60.0000  5.31014043    16
CTC2_L_00610012-10
1 86850U 24746FM  26070.40851852  .00000000  00000+0  00000-0 0  9997
2 86850  50.0000 330.0000 0000000   0.0000  96.0000  5.31014043    17
